GLOBALSTAR M045 [-]     
1 25676U 99019A   24038.90649041 -.00000002  00000+0  80505-3 0  9997
2 25676  51.9964 276.8885 0001041  33.0058 340.1717 12.27031623132591
GLOBALSTAR M019 [-]     
1 25677U 99019B   24038.66573128 -.00000079  00000+0  10928-3 0  9999
2 25677  51.9909  13.0779 0001226  42.4291 128.8684 12.13852725124967
GLOBALSTAR M044 [-]     
1 25678U 99019C   24039.06358097 -.00000035  00000+0  67472-3 0  9999
2 25678  51.9948 261.3935 0006439 157.5534 358.2685 11.90228629112345
GLOBALSTAR M042 [-]     
1 25679U 99019D   24038.68467299 -.00000070  00000+0  20957-3 0  9998
2 25679  52.0042   9.7365 0003154   2.2506 169.3024 12.22055271124674
GLOBALSTAR M025 [-]     
1 25770U 99031A   24038.84495491 -.00000045  00000+0  70578-3 0  9993
2 25770  51.9776 226.7605 0002167  62.6883 311.0098 11.22549390426083
GLOBALSTAR M049 [-]     
1 25771U 99031B   24038.91833420 -.00000055  00000+0  34309-3 0  9993
2 25771  51.9832 236.4646 0002125 260.8339  99.2217 11.12102505 62325
GLOBALSTAR M047 [-]     
1 25772U 99031C   24038.91821746 -.00000073  00000+0 -93030-4 0  9990
2 25772  51.9829 280.7527 0016799 129.4689 230.7606 11.31918001415022
GLOBALSTAR M052 [-]     
1 25773U 99031D   24038.60947189 -.00000024  00000+0  14115-2 0  9997
2 25773  51.9909 352.8066 0002837  68.5526 102.1662 11.15048355423225
